ONEWEB-0029             
1 45445U 20020X   25091.56643101  .00000513  00000+0  14121-2 0  9998
2 45445  87.8798 109.0961 0002152  90.8942 269.2432 13.11418329244774
ONEWEB-0068             
1 45446U 20020Y   25091.54763651 -.00000201  00000+0 -60418-3 0  9997
2 45446  87.8796 109.0880 0002107  89.9654 270.1715 13.11417449244713
ONEWEB-0046             
1 45447U 20020Z   25091.53928859 -.00000454  00000+0 -13172-2 0  9994
2 45447  87.8799 109.0990 0002151  98.6052 261.5320 13.11416532244726
ONEWEB-0063             
1 45448U 20020AA  25091.56812651  .00000533  00000+0  14674-2 0  9994
2 45448  87.8797 109.0920 0001944 100.3028 259.8319 13.11416226244819
ONEWEB-0019             
1 45449U 20020AB  25091.54268291 -.00000381  00000+0 -11114-2 0  9997
2 45449  87.8801 109.1116 0001686  87.8476 272.2844 13.11419742244653
ONEWEB-0094             
1 45450U 20020AC  25091.56055518 -.00000256  00000+0 -69318-3 0  9998
2 45450  87.9001  93.7969 0002008  90.9253 269.2108 13.17651368248155
ONEWEB-0087             
1 45451U 20020AD  25091.57816183  .00000507  00000+0  13949-2 0  9998
2 45451  87.8789 109.0475 0002220  90.9433 269.1950 13.11416364244707
ONEWEB-0082             
1 45452U 20020AE  25091.57491031  .00000499  00000+0  13716-2 0  9992
2 45452  87.8796 109.0663 0002041  87.4790 272.6571 13.11416418244790
ONEWEB-0050             
1 45453U 20020AF  25091.60398233  .00024332  00000+0  22556-2 0  9991
2 45453  87.9964 314.8743 0005264 102.7826 257.3993 14.94347462274622
ONEWEB-0034             
1 45454U 20020AG  25091.59693759 -.00000223  00000+0 -66471-3 0  9991
2 45454  87.8794 109.0812 0001952  91.5914 268.5437 13.11413785244711
ONEWEB-0060             
1 45455U 20020AH  25091.56317692  .00000411  00000+0  11240-2 0  9998
2 45455  87.8801 109.1128 0001941  96.9656 263.1693 13.11418690244661
ONEWEB-0086             
1 45456U 20020AJ  25091.54607783 -.00000263  00000+0 -77828-3 0  9992
2 45456  87.8799 109.0905 0002342  89.8270 270.3126 13.11417697244723
ONEWEB-0088             
1 45457U 20020AK  25091.60032320 -.00000375  00000+0 -10942-2 0  9996
2 45457  87.8790 109.0323 0002098  94.1646 265.9721 13.11415067244666
ONEWEB-0102             
1 47258U 20100A   25091.49286953  .00000152  00000+0  38769-3 0  9995
2 47258  87.8815  78.5781 0001782  84.9285 275.2047 13.12441041206797
ONEWEB-0109             
1 47259U 20100B   25091.50099745  .00000171  00000+0  43877-3 0  9996
2 47259  87.8818  78.5445 0001779  83.9329 276.2002 13.12441648206629
ONEWEB-0110             
1 47260U 20100C   25091.45070527 -.00000364  00000+0 -10463-2 0  9999
2 47260  87.8815  78.5437 0001895  82.1110 278.0234 13.12442236206785
ONEWEB-0111             
1 47261U 20100D   25091.48153459  .00000285  00000+0  75717-3 0  9993
2 47261  87.8817  78.5478 0001846  85.7126 274.4214 13.12444582206622
ONEWEB-0114             
1 47262U 20100E   25091.51234586 -.00000152  00000+0 -45840-3 0  9998
2 47262  87.8813  78.5448 0001534  87.4108 272.7196 13.12440677206585
ONEWEB-0117             
1 47263U 20100F   25091.50423818  .00000139  00000+0  35054-3 0  9995
2 47263  87.8817  78.5342 0001931  85.3037 274.8312 13.12441821206598
ONEWEB-0118             
1 47264U 20100G   25091.46044119 -.00000175  00000+0 -52307-3 0  9996
2 47264  87.8817  78.5448 0001701  95.9778 264.1544 13.12443875206781
ONEWEB-0119             
1 47265U 20100H   25091.48802504  .00000537  00000+0  14577-2 0  9995
2 47265  87.8817  78.5785 0001875  84.5063 275.6279 13.12442444206760
ONEWEB-0120             
1 47266U 20100J   25091.51087398 -.00000201  00000+0 -59315-3 0  9996
2 47266  87.8820  78.5675 0001757  87.1278 273.0052 13.12442252206790
ONEWEB-0121             
1 47267U 20100K   25091.49936818  .00000243  00000+0  64026-3 0  9993
2 47267  87.8813  78.5456 0001971  82.4978 277.6375 13.12441035206700
ONEWEB-0122             
1 47268U 20100L   25091.49437191  .00000445  00000+0  12003-2 0  9995
2 47268  87.8811  78.5518 0001807  80.8036 279.3297 13.12442459206616
ONEWEB-0123             
1 47269U 20100M   25091.48964680  .00000401  00000+0  10791-2 0  9997
2 47269  87.8816  78.5767 0001858  89.0134 271.1207 13.12442640206752
ONEWEB-0124             
1 47270U 20100N   25091.47829012  .00000340  00000+0  90876-3 0  9992
2 47270  87.8816  78.5766 0002108  86.6293 273.5077 13.12444233206639
ONEWEB-0125             
1 47271U 20100P   25091.45557422 -.00000324  00000+0 -93500-3 0  9995
2 47271  87.8819  78.5433 0002103  93.8923 266.2446 13.12442762206699
ONEWEB-0126             
1 47272U 20100Q   25091.48071868  .00000381  00000+0  10249-2 0  9993
2 47272  87.8838  78.5367 0001769  86.5502 273.5829 13.12442575206762
ONEWEB-0127             
1 47273U 20100R   25091.51883370 -.00000409  00000+0 -11732-2 0  9998
2 47273  87.8820  78.5636 0001778  84.3331 275.8000 13.12444284206797
ONEWEB-0128             
1 47274U 20100S   25091.46531158 -.00000044  00000+0 -15791-3 0  9992
2 47274  87.8823  78.5955 0001940  79.6214 280.5133 13.12445166206805
ONEWEB-0129             
1 47275U 20100T   25091.52044964 -.00000426  00000+0 -12201-2 0  9990
2 47275  87.8820  78.5333 0000678  80.5542 279.5663 13.12441309206749
ONEWEB-0130             
1 47276U 20100U   25091.47179844  .00000138  00000+0  34693-3 0  9999
2 47276  87.8815  78.5462 0001895  83.2075 276.9269 13.12444413206708
ONEWEB-0131             
1 47277U 20100V   25091.46855423  .00000074  00000+0  17030-3 0  9998
2 47277  87.8818  78.5700 0001970  83.7686 276.3667 13.12444360206745
ONEWEB-0132             
1 47278U 20100W   25091.49775449  .00000349  00000+0  93458-3 0  9994
2 47278  87.8819  78.5655 0002111  86.7921 273.3449 13.12440967206642
ONEWEB-0133             
1 47279U 20100X   25091.51397082 -.00000192  00000+0 -56894-3 0  9992
2 47279  87.8813  78.5447 0001957  82.7880 277.3471 13.12441460206809
ONEWEB-0134             
1 47280U 20100Y   25091.48315711  .00000339  00000+0  90627-3 0  9992
2 47280  87.8812  78.5357 0001799  78.1432 281.9898 13.12443977206771
ONEWEB-0135             
1 47281U 20100Z   25091.45394087 -.00000352  00000+0 -10127-2 0  9996
2 47281  87.8818  78.5742 0001948  71.7559 288.3781 13.12440835206795
ONEWEB-0136             
1 47282U 20100AA  25091.47342210  .00000195  00000+0  50797-3 0  9991
2 47282  87.8817  78.5373 0001613  73.1370 286.9935 13.12443183206728
ONEWEB-0137             
1 47283U 20100AB  25091.50748162 -.00000032  00000+0 -12335-3 0  9990
2 47283  87.8812  78.5417 0001770  91.4565 268.6766 13.12442220206636
ONEWEB-0138             
1 47284U 20100AC  25091.48640194  .00000507  00000+0  13742-2 0  9991
2 47284  87.8813  78.5579 0001804  84.0057 276.1277 13.12441816206719
ONEWEB-0139             
1 47285U 20100AD  25091.44923312 -.00000391  00000+0 -11232-2 0  9999
2 47285  87.8820  78.5513 0001893  86.0329 274.1016 13.12443188206788
ONEWEB-0140             
1 47286U 20100AE  25091.47991325  .00000400  00000+0  10778-2 0  9995
2 47286  87.8813  78.5356 0001832  82.6461 277.4876 13.12443660206750
ONEWEB-0141             
1 47287U 20100AF  25091.44894179 -.00000330  00000+0 -95218-3 0  9999
2 47287  87.8817  78.5582 0001758  97.2993 262.8335 13.12442604206738
ONEWEB-0142             
1 47288U 20100AG  25091.51172871 -.00000189  00000+0 -57321-3 0  9991
2 47288  87.8819  78.5355 0001626  90.4312 269.7002 13.10881610206732
ONEWEB-0143             
1 47289U 20100AH  25091.52369747 -.00000460  00000+0 -13153-2 0  9999
2 47289  87.8817  78.5470 0001915  85.9956 274.1392 13.12442018206710
ONEWEB-0144             
1 47290U 20100AJ  25091.49612960  .00000284  00000+0  75351-3 0  9996
2 47290  87.8815  78.5346 0001576  85.1901 274.9408 13.12442211206639
ONEWEB-0145             
1 47291U 20100AK  25091.46691897  .00000026  00000+0  36627-4 0  9998
2 47291  87.8815  78.5659 0001814  86.0241 274.1095 13.12441739206828
ONEWEB-0146             
1 47292U 20100AL  25091.53990632  .00001748  00000+0  48225-2 0  9993
2 47292  87.8816  78.5372 0002443  86.0745 274.0662 13.12459757206749
ONEWEB-0147             
1 47293U 20100AM  25091.50586141  .00000048  00000+0  96944-4 0  9992
2 47293  87.8811  78.5270 0001826  77.1877 282.9456 13.12441500206637
ONEWEB-0115             
1 48042U 21025A   25091.57420799  .00000114  00000+0  27854-3 0  9992
2 48042  87.8948  47.9819 0001942  80.8174 279.3175 13.13470336195624
ONEWEB-0152             
1 48043U 21025B   25091.58773959 -.00000247  00000+0 -71225-3 0  9993
2 48043  87.8953  47.9888 0002099  80.3714 279.7653 13.13470746195581
ONEWEB-0153             
1 48044U 21025C   25091.56574909  .00000274  00000+0  71557-3 0  9992
2 48044  87.8954  47.9887 0001866  81.3437 278.7903 13.13470521195573
ONEWEB-0154             
1 48045U 21025D   25091.41000730 -.00000765  00000+0 -21297-2 0  9995
2 48045  87.8952  48.0219 0001647 114.9760 245.1540 13.13477414195519
ONEWEB-0116             
1 48046U 21025E   25091.60130337 -.00000275  00000+0 -78748-3 0  9994
2 48046  87.8955  47.9608 0002072  79.3307 280.8055 13.13470800195684
ONEWEB-0150             
1 48047U 21025F   25091.57758948  .00000001  00000+0 -32998-4 0  9999
2 48047  87.8948  47.9679 0001777  84.2338 275.8993 13.13470410195575
ONEWEB-0107             
1 48048U 21025G   25091.57928717  .00000006  00000+0 -17219-4 0  9997
2 48048  87.8948  47.9653 0001540  80.3579 279.7724 13.13470869195551
ONEWEB-0101             
1 48049U 21025H   25091.38968872  .00000147  00000+0  36825-3 0  9991
2 48049  87.8952  48.0365 0001840  77.7270 282.4065 13.13472876195504
ONEWEB-0113             
1 48050U 21025J   25091.58077332 -.00000014  00000+0 -72105-4 0  9994
2 48050  87.8954  47.9705 0001965  83.5520 276.5834 13.13988557195613
ONEWEB-0112             
1 48051U 21025K   25091.58436997 -.00000149  00000+0 -44413-3 0  9990
2 48051  87.8950  47.9615 0001868  82.9746 277.1595 13.13470553195629
